COSMOS 2433 (720)       
1 32275U 07052A   22033.57597249 -.00000069  00000+0  00000+0 0  9995
2 32275  66.0833   9.1449 0004971 267.4312 199.8050  2.13104182111096
COSMOS 2432 (719)       
1 32276U 07052B   22032.89784372 -.00000068  00000+0  00000+0 0  9994
2 32276  66.0964   9.2657 0011916 319.0992 296.5570  2.13103522111076
COSMOS 2434 (721)       
1 32393U 07065A   22033.34517947  .00000054  00000+0  00000+0 0  9995
2 32393  64.4083 246.0416 0004792  72.8281 106.4191  2.13103113109793
COSMOS 2436 (723)       
1 32395U 07065C   22031.95868797  .00000074  00000+0  00000+0 0  9996
2 32395  64.4174 246.1452 0016600   6.1326 325.3980  2.13102961109695
COSMOS 2456 (730)       
1 36111U 09070A   22031.72016188 -.00000009  00000+0  00000+0 0  9997
2 36111  64.3207 125.7497 0002833 309.6967 230.3749  2.13099107 94426
COSMOS 2457 (733)       
1 36112U 09070B   22032.61911796 -.00000002  00000+0  00000+0 0  9999
2 36112  64.3034 125.5976 0005761 164.8179 111.1078  2.13101336 94445
COSMOS 2461 (735)       
1 36401U 10007B   22032.38343888 -.00000068  00000+0  00000+0 0  9999
2 36401  65.9711   8.0417 0020666 359.3857 130.5315  2.13103754 92796
COSMOS 2460 (732)       
1 36402U 10007C   22033.23167948 -.00000070  00000+0  00000+0 0  9999
2 36402  65.9575   7.9657 0002444 290.3950  77.4006  2.13106474 92812
COSMOS 2464 (736)       
1 37139U 10041C   22033.48495405  .00000052  00000+0  00000+0 0  9993
2 37139  64.0074 245.1800 0030257  13.3014 132.4119  2.13100837 88872
COSMOS 2476 (744)       
1 37867U 11064A   22033.48768344  .00000003  00000+0  00000+0 0  9998
2 37867  64.6119 126.9921 0021293 234.1997 126.1676  2.13101866 79814
COSMOS 2477 (745)       
1 37868U 11064B   22032.68902948 -.00000001  00000+0  00000+0 0  9999
2 37868  64.6198 127.0824 0018427 234.5268  51.3391  2.13101614 79742
COSMOS 2475 (743)       
1 37869U 11064C   22033.31311241  .00000002  00000+0  00000+0 0  9991
2 37869  64.6272 127.0682 0022251 254.3472 108.1954  2.13101779 79776
COSMOS 2485 (747)       
1 39155U 13019A   22033.42564343  .00000003  00000+0  00000+0 0  9999
2 39155  64.7769 127.3933 0021819 230.2774 126.9227  2.13101803 68279
COSMOS 2492 (754)       
1 39620U 14012A   22033.63781618 -.00000071  00000+0  00000+0 0  9995
2 39620  65.8448   7.6533 0015169 317.9324 236.6331  2.13103251 61236
COSMOS 2500 (755)       
1 40001U 14032A   22033.22054588 -.00000070  00000+0  00000+0 0  9995
2 40001  65.7850   7.5379 0007044 225.0439 228.4220  2.13102468 59448
COSMOS 2501 (702K)      
1 40315U 14075A   22031.58383196  .00000078  00000+0  00000+0 0  9994
2 40315  63.7173 245.9668 0016166 206.8976 238.2826  2.13101402 55814
COSMOS 2514 (751)       
1 41330U 16008A   22033.33164998 -.00000071  00000+0  00000+0 0  9996
2 41330  65.5845   7.2596 0010901 226.2846 135.9985  2.13102828 46610
COSMOS 2516 (753)       
1 41554U 16032A   22031.62845293  .00000078  00000+0  00000+0 0  9991
2 41554  63.9424 246.2026 0011938 214.5376 181.1718  2.13106093 44180
COSMOS 2522 (752)       
1 42939U 17055A   22033.40953588  .00000053  00000+0  00000+0 0  9993
2 42939  64.1765 246.4955 0005120 248.4537 292.6384  2.13102047 33970
COSMOS 2527 (756)       
1 43508U 18053A   22033.21773686  .00000002  00000+0  00000+0 0  9997
2 43508  64.9396 127.3720 0008096 224.6417 201.4170  2.13102559 28261
COSMOS 2529 (757)       
1 43687U 18086A   22033.37325509  .00000054  00000+0  00000+0 0  9992
2 43687  64.3909 246.7780 0007761 278.2580 190.5160  2.13102104 25281
COSMOS 2534 (758)       
1 44299U 19030A   22031.63469054  .00000078  00000+0  00000+0 0  9999
2 44299  64.4624 246.7087 0011161 298.2473  51.4164  2.13101970 20888
COSMOS 2544 (759)       
1 44850U 19088A   22033.53933313  .00000004  00000+0  00000+0 0  9999
2 44850  64.9248 127.2170 0011862 256.3674  99.9769  2.13102345 16699
COSMOS 2545 (760)       
1 45358U 20018A   22033.50824218 -.00000072  00000+0  00000+0 0  9994
2 45358  64.9218   7.9730 0010889 257.3486 284.8244  2.13102714 14653
COSMOS 2547 (705K)      
1 46805U 20075A   22032.76416442  .00000063  00000+0  00000+0 0  9997
2 46805  64.6853 246.0544 0005331 250.9032 292.4789  2.13102965  9880
